[{"OBJECT_NAME":"ONEWEB-0540","OBJECT_ID":"2022-166D","EPOCH":"2026-03-09T21:47:48.093792","MEAN_MOTION":13.21825009,"ECCENTRICITY":0.0001487,"INCLINATION":87.9164,"RA_OF_ASC_NODE":263.7997,"ARG_OF_PERICENTER":91.4302,"MEAN_ANOMALY":268.7002,"EPHEMERIS_TYPE":0,"CLASSIFICATION_TYPE":"U","NORAD_CAT_ID":54645,"ELEMENT_SET_NO":999,"REV_AT_EPOCH":15841,"BSTAR":0.00016602844,"MEAN_MOTION_DOT":8.2e-7,"MEAN_MOTION_DDOT":0},{"OBJECT_NAME":"FENGYUN 1C DEB","OBJECT_ID":"1999-025CRU","EPOCH":"2026-03-07T21:06:53.779968","MEAN_MOTION":13.56971649,"ECCENTRICITY":0.02820682,"INCLINATION":99.1063,"RA_OF_ASC_NODE":301.7353,"ARG_OF_PERICENTER":36.95,"MEAN_ANOMALY":325.071,"EPHEMERIS_TYPE":0,"CLASSIFICATION_TYPE":"U","NORAD_CAT_ID":32126,"ELEMENT_SET_NO":999,"REV_AT_EPOCH":62869,"BSTAR":0.001471907,"MEAN_MOTION_DOT":1.315e-5,"MEAN_MOTION_DDOT":0}]
